start=new Date('2022-04-03T00:00:00.000Z').valueOf();
sats=[{"REV_AT_EPOCH":"6643","RCS_SIZE":"LARGE","BSTAR":"-0.00006048600000","MEAN_ELEMENT_THEORY":"SGP4","TLE_LINE2":"2 47367  53.0562  33.2087 0001770  56.3247 303.7911 15.06396770 66432","TIME_SYSTEM":"UTC","MEAN_MOTION_DDOT":"0.0000000000000","MEAN_MOTION":"15.06396770","EPHEMERIS_TYPE":"0","ECCENTRICITY":"0.00017700","DECAY_DATE":null,"SEMIMAJOR_AXIS":"6925.358","OBJECT_ID":"2021-005U","TLE_LINE1":"1 47367U 21005U   22092.54845056 -.00001182  00000-0 -60486-4 0  9999","PERIAPSIS":"545.998","PERIOD":"95.592","OBJECT_NAME":"STARLINK-2082","SITE":"AFETR","MEAN_ANOMALY":"303.7911","REF_FRAME":"TEME","APOAPSIS":"548.449","RA_OF_ASC_NODE":"33.2087","CLASSIFICATION_TYPE":"U","FILE":"3385473","GP_ID":"200322466","CENTER_NAME":"EARTH","NORAD_CAT_ID":"47367","MEAN_MOTION_DOT":"-0.00001182","EPOCH":"2022-04-02T13:09:46.128384","COUNTRY_CODE":"US","INCLINATION":"53.0562","ELEMENT_SET_NO":"999","LAUNCH_DATE":"2021-01-20","OBJECT_TYPE":"PAYLOAD","ARG_OF_PERICENTER":"56.3247"},{"CENTER_NAME":"EARTH","GP_ID":"200322716","FILE":"3385473","RA_OF_ASC_NODE":"33.2225","CLASSIFICATION_TYPE":"U","APOAPSIS":"548.338","REF_FRAME":"TEME","MEAN_ANOMALY":"297.1296","SITE":"AFETR","ARG_OF_PERICENTER":"62.9850","OBJECT_TYPE":"PAYLOAD","LAUNCH_DATE":"2021-01-20","COUNTRY_CODE":"US","INCLINATION":"53.0563","ELEMENT_SET_NO":"999","MEAN_MOTION_DOT":"0.00000945","EPOCH":"2022-04-02T12:59:10.163040","NORAD_CAT_ID":"47368","MEAN_MOTION_DDOT":"0.0000000000000","TIME_SYSTEM":"UTC","RCS_SIZE":"LARGE","BSTAR":"0.00008234500000","MEAN_ELEMENT_THEORY":"SGP4","TLE_LINE2":"2 47368  53.0563  33.2225 0001543  62.9850 297.1296 15.06381726 66436","REV_AT_EPOCH":"6643","PERIOD":"95.593","PERIAPSIS":"546.201","OBJECT_NAME":"STARLINK-2084","TLE_LINE1":"1 47368U 21005V   22092.54108985  .00000945  00000-0  82345-4 0  9995","OBJECT_ID":"2021-005V","SEMIMAJOR_AXIS":"6925.405","ECCENTRICITY":"0.00015430","DECAY_DATE":null,"EPHEMERIS_TYPE":"0","MEAN_MOTION":"15.06381726"},{"SEMIMAJOR_AXIS":"6925.373","DECAY_DATE":null,"ECCENTRICITY":"0.00015830","MEAN_MOTION":"15.06392060","EPHEMERIS_TYPE":"0","OBJECT_NAME":"STARLINK-2085","PERIAPSIS":"546.142","PERIOD":"95.593","TLE_LINE1":"1 47369U 21005W   22092.74565029 -.00002088  00000-0 -12133-3 0  9993","OBJECT_ID":"2021-005W","TLE_LINE2":"2 47369  53.0552  12.3250 0001583  57.4755 302.6387 15.06392060 66748","RCS_SIZE":"LARGE","BSTAR":"-0.00012133000000","MEAN_ELEMENT_THEORY":"SGP4","REV_AT_EPOCH":"6674","MEAN_MOTION_DDOT":"0.0000000000000","TIME_SYSTEM":"UTC","LAUNCH_DATE":"2021-01-20","ELEMENT_SET_NO":"999","INCLINATION":"53.0552","COUNTRY_CODE":"US","EPOCH":"2022-04-02T17:53:44.185056","MEAN_MOTION_DOT":"-0.00002088","NORAD_CAT_ID":"47369","ARG_OF_PERICENTER":"57.4755","OBJECT_TYPE":"PAYLOAD","CLASSIFICATION_TYPE":"U","RA_OF_ASC_NODE":"12.3250","APOAPSIS":"548.334","REF_FRAME":"TEME","MEAN_ANOMALY":"302.6387","SITE":"AFETR","CENTER_NAME":"EARTH","FILE":"3385473","GP_ID":"200322967"},{"MEAN_MOTION_DDOT":"0.0000000000000","TIME_SYSTEM":"UTC","TLE_LINE2":"2 47370  53.0554 351.6148 0002368  34.1189 325.9951 15.06404443 67051","RCS_SIZE":"LARGE","BSTAR":"-0.00000314990000","MEAN_ELEMENT_THEORY":"SGP4","REV_AT_EPOCH":"6705","OBJECT_NAME":"STARLINK-2086","PERIAPSIS":"545.560","PERIOD":"95.592","TLE_LINE1":"1 47370U 21005X   22092.90231119 -.00000329  00000-0 -31499-5 0  9997","OBJECT_ID":"2021-005X","SEMIMAJOR_AXIS":"6925.335","DECAY_DATE":null,"ECCENTRICITY":"0.00023680","EPHEMERIS_TYPE":"0","MEAN_MOTION":"15.06404443","CENTER_NAME":"EARTH","FILE":"3385473","GP_ID":"200323718","CLASSIFICATION_TYPE":"U","RA_OF_ASC_NODE":"351.6148","APOAPSIS":"548.840","MEAN_ANOMALY":"325.9951","REF_FRAME":"TEME","SITE":"AFETR","ARG_OF_PERICENTER":"34.1189","OBJECT_TYPE":"PAYLOAD","LAUNCH_DATE":"2021-01-20","ELEMENT_SET_NO":"999","INCLINATION":"53.0554","COUNTRY_CODE":"US","EPOCH":"2022-04-02T21:39:19.686816","MEAN_MOTION_DOT":"-0.00000329","NORAD_CAT_ID":"47370"},{"TIME_SYSTEM":"UTC","MEAN_MOTION_DDOT":"0.0000000000000","MEAN_ELEMENT_THEORY":"SGP4","RCS_SIZE":"LARGE","BSTAR":"-0.00007857600000","TLE_LINE2":"2 47371  53.0566  31.9721 0001600  62.7553 297.3599 15.06389370 66476","REV_AT_EPOCH":"6647","TLE_LINE1":"1 47371U 21005Y   22092.82121891 -.00001451  00000-0 -78576-4 0  9997","OBJECT_ID":"2021-005Y","PERIOD":"95.593","PERIAPSIS":"546.138","OBJECT_NAME":"STARLINK-2088","MEAN_MOTION":"15.06389370","EPHEMERIS_TYPE":"0","SEMIMAJOR_AXIS":"6925.381","ECCENTRICITY":"0.00016000","DECAY_DATE":null,"CENTER_NAME":"EARTH","FILE":"3385473","GP_ID":"200321966","MEAN_ANOMALY":"297.3599","REF_FRAME":"TEME","SITE":"AFETR","RA_OF_ASC_NODE":"31.9721","CLASSIFICATION_TYPE":"U","APOAPSIS":"548.354","ARG_OF_PERICENTER":"62.7553","OBJECT_TYPE":"PAYLOAD","MEAN_MOTION_DOT":"-0.00001451","EPOCH":"2022-04-02T19:42:33.313824","NORAD_CAT_ID":"47371","LAUNCH_DATE":"2021-01-20","INCLINATION":"53.0566","COUNTRY_CODE":"US","ELEMENT_SET_NO":"999"},{"SEMIMAJOR_AXIS":"6925.357","ECCENTRICITY":"0.00014600","DECAY_DATE":null,"MEAN_MOTION":"15.06397193","EPHEMERIS_TYPE":"0","PERIAPSIS":"546.211","PERIOD":"95.592","OBJECT_NAME":"STARLINK-2089","TLE_LINE1":"1 47372U 21005Z   22092.52031556 -.00002705  00000-0 -16276-3 0  9994","OBJECT_ID":"2021-005Z","RCS_SIZE":"LARGE","BSTAR":"-0.00016276000000","MEAN_ELEMENT_THEORY":"SGP4","TLE_LINE2":"2 47372  53.0561  28.3121 0001460  58.8285 301.2847 15.06397193 66493","REV_AT_EPOCH":"6649","MEAN_MOTION_DDOT":"0.0000000000000","TIME_SYSTEM":"UTC","LAUNCH_DATE":"2021-01-20","COUNTRY_CODE":"US","INCLINATION":"53.0561","ELEMENT_SET_NO":"999","MEAN_MOTION_DOT":"-0.00002705","EPOCH":"2022-04-02T12:29:15.264384","NORAD_CAT_ID":"47372","ARG_OF_PERICENTER":"58.8285","OBJECT_TYPE":"PAYLOAD","RA_OF_ASC_NODE":"28.3121","CLASSIFICATION_TYPE":"U","APOAPSIS":"548.233","REF_FRAME":"TEME","MEAN_ANOMALY":"301.2847","SITE":"AFETR","CENTER_NAME":"EARTH","FILE":"3385473","GP_ID":"200322216"},{"APOAPSIS":"548.368","CLASSIFICATION_TYPE":"U","RA_OF_ASC_NODE":"33.1681","SITE":"AFETR","REF_FRAME":"TEME","MEAN_ANOMALY":"304.9115","GP_ID":"200323468","FILE":"3385473","CENTER_NAME":"EARTH","ELEMENT_SET_NO":"999","COUNTRY_CODE":"US","INCLINATION":"53.0553","LAUNCH_DATE":"2021-01-20","NORAD_CAT_ID":"47373","EPOCH":"2022-04-02T13:15:04.108896","MEAN_MOTION_DOT":"-0.00001649","OBJECT_TYPE":"PAYLOAD","ARG_OF_PERICENTER":"55.2029","REV_AT_EPOCH":"6643","TLE_LINE2":"2 47373  53.0553  33.1681 0001647  55.2029 304.9115 15.06395426 66433","RCS_SIZE":"LARGE","MEAN_ELEMENT_THEORY":"SGP4","BSTAR":"-0.00009182000000","MEAN_MOTION_DDOT":"0.0000000000000","TIME_SYSTEM":"UTC","DECAY_DATE":null,"ECCENTRICITY":"0.00016470","SEMIMAJOR_AXIS":"6925.363","EPHEMERIS_TYPE":"0","MEAN_MOTION":"15.06395426","OBJECT_NAME":"STARLINK-2092","PERIAPSIS":"546.087","PERIOD":"95.592","OBJECT_ID":"2021-005AA","TLE_LINE1":"1 47373U 21005AA  22092.55213089 -.00001649  00000-0 -91820-4 0  9996"},{"REF_FRAME":"TEME","MEAN_ANOMALY":"299.6315","SITE":"AFETR","CLASSIFICATION_TYPE":"U","RA_OF_ASC_NODE":"31.9064","APOAPSIS":"548.390","CENTER_NAME":"EARTH","FILE":"3385058","GP_ID":"200294358","EPOCH":"2022-04-02T20:07:43.569408","MEAN_MOTION_DOT":"-0.00000190","NORAD_CAT_ID":"47374","LAUNCH_DATE":"2021-01-20","ELEMENT_SET_NO":"999","COUNTRY_CODE":"US","INCLINATION":"53.0502","ARG_OF_PERICENTER":"60.4840","OBJECT_TYPE":"PAYLOAD","TLE_LINE2":"2 47374  53.0502  31.9064 0001673  60.4840 299.6315 15.06394308 66471","RCS_SIZE":"LARGE","MEAN_ELEMENT_THEORY":"SGP4","BSTAR":"0.00000612300000","REV_AT_EPOCH":"6647","TIME_SYSTEM":"UTC","MEAN_MOTION_DDOT":"0.0000000000000","EPHEMERIS_TYPE":"0","MEAN_MOTION":"15.06394308","SEMIMAJOR_AXIS":"6925.366","DECAY_DATE":null,"ECCENTRICITY":"0.00016730","TLE_LINE1":"1 47374U 21005AB  22092.83869872 -.00000190  00000-0  61230-5 0  9997","OBJECT_ID":"2021-005AB","OBJECT_NAME":"STARLINK-2093","PERIOD":"95.593","PERIAPSIS":"546.072"},{"DECAY_DATE":null,"ECCENTRICITY":"0.00016820","SEMIMAJOR_AXIS":"6925.300","EPHEMERIS_TYPE":"0","MEAN_MOTION":"15.06415823","OBJECT_NAME":"STARLINK-2094","PERIOD":"95.591","PERIAPSIS":"546.000","OBJECT_ID":"2021-005AC","TLE_LINE1":"1 47375U 21005AC  22092.24618453  .00001951  00000-0  14981-3 0  9994","REV_AT_EPOCH":"6638","TLE_LINE2":"2 47375  53.0566  34.5669 0001682  43.6563 316.4559 15.06415823 66381","BSTAR":"0.00014981000000","RCS_SIZE":"LARGE","MEAN_ELEMENT_THEORY":"SGP4","MEAN_MOTION_DDOT":"0.0000000000000","TIME_SYSTEM":"UTC","ELEMENT_SET_NO":"999","COUNTRY_CODE":"US","INCLINATION":"53.0566","LAUNCH_DATE":"2021-01-20","NORAD_CAT_ID":"47375","EPOCH":"2022-04-02T05:54:30.343392","MEAN_MOTION_DOT":"0.00001951","OBJECT_TYPE":"PAYLOAD","ARG_OF_PERICENTER":"43.6563","APOAPSIS":"548.330","CLASSIFICATION_TYPE":"U","RA_OF_ASC_NODE":"34.5669","SITE":"AFETR","MEAN_ANOMALY":"316.4559","REF_FRAME":"TEME","FILE":"3385473","GP_ID":"200322467","CENTER_NAME":"EARTH"},{"INCLINATION":"53.0554","COUNTRY_CODE":"US","ELEMENT_SET_NO":"999","LAUNCH_DATE":"2021-01-20","NORAD_CAT_ID":"47376","MEAN_MOTION_DOT":"-0.00001442","EPOCH":"2022-04-02T20:19:42.172032","OBJECT_TYPE":"PAYLOAD","ARG_OF_PERICENTER":"61.1845","APOAPSIS":"548.389","RA_OF_ASC_NODE":"31.8618","CLASSIFICATION_TYPE":"U","SITE":"AFETR","MEAN_ANOMALY":"298.9311","REF_FRAME":"TEME","FILE":"3385268","GP_ID":"200300019","CENTER_NAME":"EARTH","ECCENTRICITY":"0.00016610","DECAY_DATE":null,"SEMIMAJOR_AXIS":"6925.374","MEAN_MOTION":"15.06391833","EPHEMERIS_TYPE":"0","PERIOD":"95.593","PERIAPSIS":"546.088","OBJECT_NAME":"STARLINK-2096","OBJECT_ID":"2021-005AD","TLE_LINE1":"1 47376U 21005AD  22092.84701588 -.00001442  00000-0 -77922-4 0  9995","REV_AT_EPOCH":"6647","RCS_SIZE":"LARGE","BSTAR":"-0.00007792200000","MEAN_ELEMENT_THEORY":"SGP4","TLE_LINE2":"2 47376  53.0554  31.8618 0001661  61.1845 298.9311 15.06391833 66472","MEAN_MOTION_DDOT":"0.0000000000000","TIME_SYSTEM":"UTC"}];
